STARLINK-30494          
1 57970U 23151G   26068.36049035 -.00001272  00000+0 -35691-4 0  9993
2 57970  43.0027 192.4566 0001155 241.5536 118.5200 15.28417441137406
STARLINK-35711          
1 66595U 25270H   26068.01023925  .00030355  00000+0  11083-2 0  9991
2 66595  42.9996  59.8664 0000601 229.3637 130.7162 15.27572787 17716
